NORAD_CAT_ID,OBJECT_NAME,OBJECT_TYPE,EPOCH,MEAN_MOTION,ECCENTRICITY,INCLINATION,RA_OF_ASC_NODE,ARG_OF_PERICENTER,MEAN_ANOMALY,BSTAR,MEAN_MOTION_DOT,MEAN_MOTION_DDOT,TLE_LINE0,TLE_LINE1,TLE_LINE2,SEMIMAJOR_AXIS,PERIOD,APOGEE,PERIGEE,DECAYED
50828.0,STARLINK-3290,PAYLOAD,2022-06-15 06:28:09,15.08845109,0.0002536,53.2172,169.762,44.1684,315.951,0.00011094,1.478e-05,0.0,0 STARLINK-3290,1 50828U 22001AB  22166.26955833  .00001478  00000-0  11094-3 0  9994,2 50828  53.2172 169.7620 0002536  44.1684 315.9510 15.08845109 24426,6917.865,95.437,541.484,537.975,0.0
50828.0,STARLINK-3290,PAYLOAD,2022-06-15 17:35:51,15.08849135,0.0002563,53.2173,167.6803,45.1077,315.0123,0.00012463,1.696e-05,0.0,0 STARLINK-3290,1 50828U 22001AB  22166.73323397  .00001696  00000-0  12463-3 0  9993,2 50828  53.2173 167.6803 0002563  45.1077 315.0123 15.08849135 24495,6917.852,95.437,541.491,537.944,0.0
50828.0,STARLINK-3290,PAYLOAD,2022-06-19 05:51:18,15.08835277,0.0002633,53.2169,151.9205,47.8176,312.3040000000001,2.2991e-05,7.7e-07,0.0,0 STARLINK-3290,1 50828U 22001AB  22170.24396363  .00000077  00000-0  22991-4 0  9997,2 50828  53.2169 151.9205 0002633  47.8176 312.3040 15.08835277 25029,6917.895,95.438,541.581,537.938,0.0
50828.0,STARLINK-3290,PAYLOAD,2022-06-19 15:23:37,15.08839112,0.0002664,53.2171,150.1363,48.7959,311.3262,3.2197e-05,2.24e-06,0.0,0 STARLINK-3290,1 50828U 22001AB  22170.64140173  .00000224  00000-0  32197-4 0  9990,2 50828  53.2171 150.1363 0002664  48.7959 311.3262 15.08839112 26513,6917.8830000000025,95.438,541.591,537.905,0.0
50828.0,STARLINK-3290,PAYLOAD,2022-06-20 05:42:04,15.08844496,0.0002659,53.2174,147.4602,48.9728,311.1494,4.4325e-05,4.17e-06,0.0,0 STARLINK-3290,1 50828U 22001AB  22171.23755785  .00000417  00000-0  44325-4 0  9997,2 50828  53.2174 147.4602 0002659  48.9728 311.1494 15.08844496 25178,6917.8669999999975,95.437,541.571,537.8919999999998,0.0
50828.0,STARLINK-3290,PAYLOAD,2022-06-20 15:14:23,15.08842414,0.0002688,53.2171,145.6757,49.7556,310.3671,0.00016988,2.416e-05,0.0,0 STARLINK-3290,1 50828U 22001AB  22171.63499549  .00002416  00000-0  16988-3 0  9998,2 50828  53.2171 145.6757 0002688  49.7556 310.3671 15.08842414 25239,6917.873000000001,95.437,541.5980000000002,537.878,0.0
50828.0,STARLINK-3290,PAYLOAD,2022-06-21 00:46:43,15.08834124,0.0002811,53.2163,143.8917,53.7628,306.3624,3.6808e-05,2.97e-06,0.0,0 STARLINK-3290,1 50828U 22001AB  22172.03244545  .00000297  00000-0  36808-4 0  9996,2 50828  53.2163 143.8917 0002811  53.7628 306.3624 15.08834124 26728,6917.898,95.438,541.7080000000002,537.819,0.0
50828.0,STARLINK-3290,PAYLOAD,2022-06-21 07:08:15,15.08835405,0.0002979,53.2157,142.7009,51.6076,308.5183,4.3203e-05,3.99e-06,0.0,0 STARLINK-3290,1 50828U 22001AB  22172.29740544  .00000399  00000-0  43203-4 0  9994,2 50828  53.2157 142.7009 0002979  51.6076 308.5183 15.08835405 25333,6917.894,95.438,541.82,537.6990000000002,0.0
50828.0,STARLINK-3290,PAYLOAD,2022-06-21 16:40:34,15.08840854,0.0002783,53.2167,140.9182,53.2338,306.8909,6.961e-05,8.2e-06,0.0,0 STARLINK-3290,1 50828U 22001AB  22172.69484110  .00000820  00000-0  69610-4 0  9991,2 50828  53.2167 140.9182 0002783  53.2338 306.8909 15.08840854 26824,6917.878000000002,95.438,541.668,537.818,0.0
50828.0,STARLINK-3290,PAYLOAD,2022-06-22 03:48:15,15.08849781,0.0002725,53.2166,138.8366,53.3439,306.7803,0.00010403,1.368e-05,0.0,0 STARLINK-3290,1 50828U 22001AB  22173.15851243  .00001368  00000-0  10403-3 0  9991,2 50828  53.2166 138.8366 0002725  53.3439 306.7803 15.08849781 26899,6917.85,95.437,541.601,537.83,0.0
50828.0,STARLINK-3290,PAYLOAD,2022-06-22 16:31:21,15.08842274,0.0002781,53.2174,136.4583,54.5079,305.6172,2.1922e-05,6e-07,0.0,0 STARLINK-3290,1 50828U 22001AB  22173.68843813  .00000060  00000-0  21922-4 0  9990,2 50828  53.2174 136.4583 0002781  54.5079 305.6172 15.08842274 26974,6917.873000000001,95.437,541.6619999999998,537.815,0.0
50828.0,STARLINK-3290,PAYLOAD,2022-06-23 03:39:03,15.08834185,0.0002654,53.2173,134.376,54.0837,306.0401,3.0686e-05,2e-06,0.0,0 STARLINK-3290,1 50828U 22001AB  22174.15212280  .00000200  00000-0  30686-4 0  9994,2 50828  53.2173 134.3760 0002654  54.0837 306.0401 15.08834185 27044,6917.898,95.438,541.599,537.927,0.0
50828.0,STARLINK-3290,PAYLOAD,2022-06-23 14:46:44,15.08842064,0.0002586,53.2173,132.295,52.8712,307.2516,3.894e-05,3.31e-06,0.0,0 STARLINK-3290,1 50828U 22001AB  22174.61579715  .00000331  00000-0  38940-4 0  9990,2 50828  53.2173 132.2950 0002586  52.8712 307.2516 15.08842064 27117,6917.874,95.437,541.528,537.95,0.0
50828.0,STARLINK-3290,PAYLOAD,2022-06-24 06:40:36,15.08833601,0.0002619,53.2178,129.3216,53.2348,306.8884,-6.3149e-05,-1.293e-05,0.0,0 STARLINK-3290,1 50828U 22001AB  22175.27820511 -.00001293  00000-0 -63149-4 0  9995,2 50828  53.2178 129.3216 0002619  53.2348 306.8884 15.08833601 27212,6917.9,95.438,541.577,537.953,0.0
50828.0,STARLINK-3290,PAYLOAD,2022-06-25 03:20:37,15.08835279,0.0002596,53.2181,125.4559,54.7967,305.3268,6.5602e-05,7.56e-06,0.0,0 STARLINK-3290,1 50828U 22001AB  22176.13932210  .00000756  00000-0  65602-4 0  9998,2 50828  53.2181 125.4559 0002596  54.7967 305.3268 15.08835279 27347,6917.895,95.438,541.556,537.964,0.0
50828.0,STARLINK-3290,PAYLOAD,2022-06-25 06:31:23,15.08838789,0.0002616,53.2182,124.8608,54.2985,305.825,5.0637e-05,5.18e-06,0.0,0 STARLINK-3290,1 50828U 22001AB  22176.27180072  .00000518  00000-0  50637-4 0  9992,2 50828  53.2182 124.8608 0002616  54.2985 305.8250 15.08838789 25932,6917.884,95.438,541.559,537.939,0.0
50828.0,STARLINK-3290,PAYLOAD,2022-06-26 12:43:43,15.08830342,0.0002628999999999,53.218,119.2114,56.0218,304.1023,2.7505e-05,1.49e-06,0.0,0 STARLINK-3290,1 50828U 22001AB  22177.53036823  .00000149  00000-0  27505-4 0  9994,2 50828  53.2180 119.2114 0002629  56.0218 304.1023 15.08830342 27550,6917.91,95.438,541.594,537.956,0.0
50828.0,STARLINK-3290,PAYLOAD,2022-06-27 04:37:35,15.08832717,0.0002651,53.2184,116.2384,57.6773,302.4475,-3.9434e-05,-9.16e-06,0.0,0 STARLINK-3290,1 50828U 22001AB  22178.19277276 -.00000916  00000-0 -39434-4 0  9994,2 50828  53.2184 116.2384 0002651  57.6773 302.4475 15.08832717 26221,6917.903,95.438,541.602,537.934,0.0
50828.0,STARLINK-3290,PAYLOAD,2022-06-28 04:28:21,15.08869676,0.0002417,53.2188,111.7789,59.4813,300.6417,-0.00040024,-6.658e-05,0.0,0 STARLINK-3290,1 50828U 22001AB  22179.18636396 -.00006658  00000-0 -40024-3 0  9991,2 50828  53.2188 111.7789 0002417  59.4813 300.6417 15.08869676 27804,6917.79,95.436,541.327,537.9830000000002,0.0
50828.0,STARLINK-3290,PAYLOAD,2022-06-28 07:39:09,15.08827822,0.0002883,53.2186,111.1835,56.4741,303.6527,-4.0541e-05,-9.34e-06,0.0,0 STARLINK-3290,1 50828U 22001AB  22179.31885653 -.00000934  00000-0 -40541-4 0  9994,2 50828  53.2186 111.1835 0002883  56.4741 303.6527 15.08827822 27826,6917.918000000002,95.438,541.7769999999998,537.788,0.0
50828.0,STARLINK-3290,PAYLOAD,2022-06-28 12:25:18,15.08828488,0.0002616,53.2184,110.2915,58.2045,301.9202,-3.3113e-05,-8.15e-06,0.0,0 STARLINK-3290,1 50828U 22001AB  22179.51757882 -.00000815  00000-0 -33113-4 0  9993,2 50828  53.2184 110.2915 0002616  58.2045 301.9202 15.08828488 26429,6917.916,95.438,541.59,537.971,0.0
50828.0,STARLINK-3290,PAYLOAD,2022-06-29 04:19:10,15.08832851,0.0002522,53.2183,107.3174,58.2657,301.8581,3.2779e-05,2.33e-06,0.0,0 STARLINK-3290,1 50828U 22001AB  22180.17997816  .00000233  00000-0  32779-4 0  9999,2 50828  53.2183 107.3174 0002522  58.2657 301.8581 15.08832851 26526,6917.901999999999,95.438,541.512,538.023,0.0
50828.0,STARLINK-3290,PAYLOAD,2022-06-30 04:09:56,15.08843219,0.000258,53.2184,102.857,64.0465,296.0793,5.1979e-05,5.39e-06,0.0,0 STARLINK-3290,1 50828U 22001AB  22181.17357224  .00000539  00000-0  51979-4 0  9995,2 50828  53.2184 102.8570 0002580  64.0465 296.0793 15.08843219 28109,6917.871,95.437,541.52,537.951,0.0
50828.0,STARLINK-3290,PAYLOAD,2022-06-30 07:20:42,15.08847193,0.000258,53.2185,102.2623,59.3806,300.744,2.6152e-05,1.28e-06,0.0,0 STARLINK-3290,1 50828U 22001AB  22181.30605043  .00000128  00000-0  26152-4 0  9994,2 50828  53.2185 102.2623 0002580  59.3806 300.7440 15.08847193 26698,6917.858,95.437,541.508,537.939,0.0
50828.0,STARLINK-3290,PAYLOAD,2022-06-30 18:28:25,15.08836858,0.0002569,53.2186,100.1808,61.0987,299.0262,9.2373e-05,1.182e-05,0.0,0 STARLINK-3290,1 50828U 22001AB  22181.76973517  .00001182  00000-0  92373-4 0  9997,2 50828  53.2186 100.1808 0002569  61.0987 299.0262 15.08836858 26764,6917.89,95.438,541.5319999999998,537.9780000000002,0.0
50828.0,STARLINK-3290,PAYLOAD,2022-07-01 04:00:44,15.08833971,0.0002542,53.2185,98.3963,62.4576,297.6674,8.0102e-06,-1.61e-06,0.0,0 STARLINK-3290,1 50828U 22001AB  22182.16718072 -.00000161  00000-0  80102-5 0  9990,2 50828  53.2185  98.3963 0002542  62.4576 297.6674 15.08833971 28253,6917.899,95.438,541.5219999999998,538.005,0.0
50828.0,STARLINK-3290,PAYLOAD,2022-07-01 11:57:39,15.08837921,0.0002554,53.2187,96.9098,62.8313,297.2939,2.1406e-05,5.2e-07,0.0,0 STARLINK-3290,1 50828U 22001AB  22182.49837827  .00000052  00000-0  21406-4 0  9995,2 50828  53.2187  96.9098 0002554  62.8313 297.2939 15.08837921 26879,6917.887,95.438,541.519,537.985,0.0
50828.0,STARLINK-3290,PAYLOAD,2022-07-01 21:29:58,15.08842908,0.0002557,53.2187,95.1255,63.4028,296.7226,-7.6337e-08,-2.9e-06,0.0,0 STARLINK-3290,1 50828U 22001AB  22182.89581580 -.00000290  00000-0 -76337-7 0  9993,2 50828  53.2187  95.1255 0002557  63.4028 296.7226 15.08842908 26939,6917.871999999999,95.437,541.505,537.9680000000002,0.0
50828.0,STARLINK-3290,PAYLOAD,2022-07-02 03:51:30,15.08845087,0.0002579,53.2187,93.9362,63.8895,296.2363,1.9894e-05,2.8e-07,0.0,0 STARLINK-3290,1 50828U 22001AB  22183.16077322  .00000028  00000-0  19894-4 0  9997,2 50828  53.2187  93.9362 0002579  63.8895 296.2363 15.08845087 28406,6917.865,95.437,541.514,537.946,0.0
